{"type": "FeatureCollection", "features": [ {"type": "Feature", "properties": {"norad_id": 32205, "name": "FENGYUN 1C DEB", "group": "fengyun-1c-debris", "lat": -64.64466225729821, "lon": 142.7445537385856, "alt_km": 851.289897296756, "timestamp": "2025-12-03T08:58:46.287981+00:00", "meta": {"OBJECT_NAME": "FENGYUN 1C DEB", "OBJECT_ID": "1999-025CVB", "EPOCH": "2025-12-01T23:40:56.544384", "MEAN_MOTION": 14.1389981, "ECCENTRICITY": 0.00103693, "INCLINATION": 98.6787, "RA_OF_ASC_NODE": 340.2006, "ARG_OF_PERICENTER": 324.9704, "MEAN_ANOMALY": 63.3095, "EPHEMERIS_TYPE": 0, "CLASSIFICATION_TYPE": "U", "NORAD_CAT_ID": 32205, "ELEMENT_SET_NO": 999, "REV_AT_EPOCH": 94346, "BSTAR": 0.00020548831, "MEAN_MOTION_DOT": 3.47e-06, "MEAN_MOTION_DDOT": 0}, "tle": {"line1": "1 32205U 99025CVB 25335.98676556  .00000347  00000+0  20549-3 0  9993", "line2": "2 32205  98.6787 340.2006 0010369 324.9704  63.3095 14.13899810943468"}}, "geometry": {"type": "Point", "coordinates": [142.7445537385856, -64.64466225729821]}}, {"type": "Feature", "properties": {"norad_id": 32209, "name": "FENGYUN 1C DEB", "group": "fengyun-1c-debris", "lat": -64.12265884752925, "lon": -54.662319889451425, "alt_km": 1185.186913956467, "timestamp": "2025-12-03T08:58:46.287991+00:00", "meta": {"OBJECT_NAME": "FENGYUN 1C DEB", "OBJECT_ID": "1999-025CVF", "EPOCH": "2025-12-01T19:52:12.211968", "MEAN_MOTION": 13.47100658, "ECCENTRICITY": 0.03328885, "INCLINATION": 99.4197, "RA_OF_ASC_NODE": 283.8685, "ARG_OF_PERICENTER": 52.3889, "MEAN_ANOMALY": 310.6974, "EPHEMERIS_TYPE": 0, "CLASSIFICATION_TYPE": "U", "NORAD_CAT_ID": 32209, "ELEMENT_SET_NO": 999, "REV_AT_EPOCH": 89829, "BSTAR": 0.002968545, "MEAN_MOTION_DOT": 2.491e-05, "MEAN_MOTION_DDOT": 0}, "tle": {"line1": "1 32209U 99025CVF 25335.82791912  .00002491  00000+0  29685-2 0  9995", "line2": "2 32209  99.4197 283.8685 0332888  52.3889 310.6974 13.47100658898295"}}, "geometry": {"type": "Point", "coordinates": [-54.662319889451425, -64.12265884752925]}}, {"type": "Feature", "properties": {"norad_id": 32212, "name": "FENGYUN 1C DEB", "group": "fengyun-1c-debris", "lat": -51.59860035322194, "lon": -119.33211128566828, "alt_km": 822.4566584560125, "timestamp": "2025-12-03T08:58:46.288002+00:00", "meta": {"OBJECT_NAME": "FENGYUN 1C DEB", "OBJECT_ID": "1999-025CVJ", "EPOCH": "2025-11-25T13:14:33.862848", "MEAN_MOTION": 14.40232074, "ECCENTRICITY": 0.01375663, "INCLINATION": 99.574, "RA_OF_ASC_NODE": 64.2206, "ARG_OF_PERICENTER": 128.3819, "MEAN_ANOMALY": 247.3372, "EPHEMERIS_TYPE": 0, "CLASSIFICATION_TYPE": "U", "NORAD_CAT_ID": 32212, "ELEMENT_SET_NO": 999, "REV_AT_EPOCH": 95814, "BSTAR": 0.00072151174, "MEAN_MOTION_DOT": 2.496e-05, "MEAN_MOTION_DDOT": 0}, "tle": {"line1": "1 32212U 99025CVJ 25329.55178082  .00002496  00000+0  72151-3 0  9991", "line2": "2 32212  99.5740  64.2206 0137566 128.3819 247.3372 14.40232074958148"}}, "geometry": {"type": "Point", "coordinates": [-119.33211128566828, -51.59860035322194]}}, {"type": "Feature", "properties": {"norad_id": 32214, "name": "FENGYUN 1C DEB", "group": "fengyun-1c-debris", "lat": -58.71243137753942, "lon": 18.435528055149184, "alt_km": 1011.1084931004898, "timestamp": "2025-12-03T08:58:46.288012+00:00", "meta": {"OBJECT_NAME": "FENGYUN 1C DEB", "OBJECT_ID": "1999-025CVL", "EPOCH": "2025-12-02T21:44:34.255392", "MEAN_MOTION": 13.90359626, "ECCENTRICITY": 0.0189126, "INCLINATION": 99.0447, "RA_OF_ASC_NODE": 2.785, "ARG_OF_PERICENTER": 66.0242, "MEAN_ANOMALY": 53.727, "EPHEMERIS_TYPE": 0, "CLASSIFICATION_TYPE": "U", "NORAD_CAT_ID": 32214, "ELEMENT_SET_NO": 999, "REV_AT_EPOCH": 62285, "BSTAR": 0.0057649, "MEAN_MOTION_DOT": 8.23e-05, "MEAN_MOTION_DDOT": 0}, "tle": {"line1": "1 32214U 99025CVL 25336.90595203  .00008230  00000+0  57649-2 0  9994", "line2": "2 32214  99.0447   2.7850 0189126  66.0242  53.7270 13.90359626622857"}}, "geometry": {"type": "Point", "coordinates": [18.435528055149184, -58.71243137753942]}}, {"type": "Feature", "properties": {"norad_id": 32218, "name": "FENGYUN 1C DEB", "group": "fengyun-1c-debris", "lat": 34.175663134058574, "lon": -3.2311133962286824, "alt_km": 676.7514231569494, "timestamp": "2025-12-03T08:58:46.288022+00:00", "meta": {"OBJECT_NAME": "FENGYUN 1C DEB", "OBJECT_ID": "1999-025CVQ", "EPOCH": "2025-12-03T00:45:18.182016", "MEAN_MOTION": 14.55377334, "ECCENTRICITY": 0.0063116, "INCLINATION": 98.812, "RA_OF_ASC_NODE": 170.3616, "ARG_OF_PERICENTER": 96.7077, "MEAN_ANOMALY": 53.5917, "EPHEMERIS_TYPE": 0, "CLASSIFICATION_TYPE": "U", "NORAD_CAT_ID": 32218, "ELEMENT_SET_NO": 999, "REV_AT_EPOCH": 96091, "BSTAR": 0.001001, "MEAN_MOTION_DOT": 4.413e-05, "MEAN_MOTION_DDOT": 0}, "tle": {"line1": "1 32218U 99025CVQ 25337.03146044  .00004413  00000+0  10010-2 0  9998", "line2": "2 32218  98.8120 170.3616 0063116  96.7077  53.5917 14.55377334960910"}}, "geometry": {"type": "Point", "coordinates": [-3.2311133962286824, 34.175663134058574]}}, {"type": "Feature", "properties": {"norad_id": 32221, "name": "FENGYUN 1C DEB", "group": "fengyun-1c-debris", "lat": -71.71763574866324, "lon": 154.14126814242852, "alt_km": 741.9631907577304, "timestamp": "2025-12-03T08:58:46.288033+00:00", "meta": {"OBJECT_NAME": "FENGYUN 1C DEB", "OBJECT_ID": "1999-025CVT", "EPOCH": "2025-12-02T08:37:46.198272", "MEAN_MOTION": 14.58616548, "ECCENTRICITY": 0.01465125, "INCLINATION": 98.5645, "RA_OF_ASC_NODE": 125.9566, "ARG_OF_PERICENTER": 177.6443, "MEAN_ANOMALY": 182.5478, "EPHEMERIS_TYPE": 0, "CLASSIFICATION_TYPE": "U", "NORAD_CAT_ID": 32221, "ELEMENT_SET_NO": 999, "REV_AT_EPOCH": 97046, "BSTAR": 0.00060942871, "MEAN_MOTION_DOT": 3.237e-05, "MEAN_MOTION_DDOT": 0}, "tle": {"line1": "1 32221U 99025CVT 25336.35956248  .00003237  00000+0  60943-3 0  9995", "line2": "2 32221  98.5645 125.9566 0146512 177.6443 182.5478 14.58616548970463"}}, "geometry": {"type": "Point", "coordinates": [154.14126814242852, -71.71763574866324]}}, {"type": "Feature", "properties": {"norad_id": 32223, "name": "FENGYUN 1C DEB", "group": "fengyun-1c-debris", "lat": 5.588995495987897, "lon": 55.56412253076682, "alt_km": 793.2739613056756, "timestamp": "2025-12-03T08:58:46.288043+00:00", "meta": {"OBJECT_NAME": "FENGYUN 1C DEB", "OBJECT_ID": "1999-025CVV", "EPOCH": "2025-12-03T01:04:54.180192", "MEAN_MOTION": 14.20806396, "ECCENTRICITY": 0.0046655, "INCLINATION": 98.8397, "RA_OF_ASC_NODE": 56.1076, "ARG_OF_PERICENTER": 346.2458, "MEAN_ANOMALY": 137.0962, "EPHEMERIS_TYPE": 0, "CLASSIFICATION_TYPE": "U", "NORAD_CAT_ID": 32223, "ELEMENT_SET_NO": 999, "REV_AT_EPOCH": 64086, "BSTAR": 0.0017444, "MEAN_MOTION_DOT": 3.765e-05, "MEAN_MOTION_DDOT": 0}, "tle": {"line1": "1 32223U 99025CVV 25337.04507153  .00003765  00000+0  17444-2 0  9994", "line2": "2 32223  98.8397  56.1076 0046655 346.2458 137.0962 14.20806396640862"}}, "geometry": {"type": "Point", "coordinates": [55.56412253076682, 5.588995495987897]}}, {"type": "Feature", "properties": {"norad_id": 32224, "name": "FENGYUN 1C DEB", "group": "fengyun-1c-debris", "lat": 32.99111338814728, "lon": -77.86888745900275, "alt_km": 748.3677318579212, "timestamp": "2025-12-03T08:58:46.288053+00:00", "meta": {"OBJECT_NAME": "FENGYUN 1C DEB", "OBJECT_ID": "1999-025CVW", "EPOCH": "2025-12-02T07:42:20.079072", "MEAN_MOTION": 14.33989885, "ECCENTRICITY": 0.00771432, "INCLINATION": 98.9822, "RA_OF_ASC_NODE": 286.9314, "ARG_OF_PERICENTER": 96.5488, "MEAN_ANOMALY": 264.4485, "EPHEMERIS_TYPE": 0, "CLASSIFICATION_TYPE": "U", "NORAD_CAT_ID": 32224, "ELEMENT_SET_NO": 999, "REV_AT_EPOCH": 95574, "BSTAR": 0.00039198885, "MEAN_MOTION_DOT": 1.084e-05, "MEAN_MOTION_DDOT": 0}, "tle": {"line1": "1 32224U 99025CVW 25336.32106573  .00001084  00000+0  39199-3 0  9990", "line2": "2 32224  98.9822 286.9314 0077143  96.5488 264.4485 14.33989885955749"}}, "geometry": {"type": "Point", "coordinates": [-77.86888745900275, 32.99111338814728]}}, {"type": "Feature", "properties": {"norad_id": 32225, "name": "FENGYUN 1C DEB", "group": "fengyun-1c-debris", "lat": -23.2560273383449, "lon": 29.838414871626725, "alt_km": 866.0793009431964, "timestamp": "2025-12-03T08:58:46.288063+00:00", "meta": {"OBJECT_NAME": "FENGYUN 1C DEB", "OBJECT_ID": "1999-025CVX", "EPOCH": "2025-12-02T09:17:58.336800", "MEAN_MOTION": 14.13030511, "ECCENTRICITY": 0.00713215, "INCLINATION": 99.0934, "RA_OF_ASC_NODE": 24.8898, "ARG_OF_PERICENTER": 235.8131, "MEAN_ANOMALY": 123.6266, "EPHEMERIS_TYPE": 0, "CLASSIFICATION_TYPE": "U", "NORAD_CAT_ID": 32225, "ELEMENT_SET_NO": 999, "REV_AT_EPOCH": 67970, "BSTAR": 0.00030097544, "MEAN_MOTION_DOT": 5.29e-06, "MEAN_MOTION_DDOT": 0}, "tle": {"line1": "1 32225U 99025CVX 25336.38748075  .00000529  00000+0  30098-3 0  9998", "line2": "2 32225  99.0934  24.8898 0071321 235.8131 123.6266 14.13030511679700"}}, "geometry": {"type": "Point", "coordinates": [29.838414871626725, -23.2560273383449]}}, {"type": "Feature", "properties": {"norad_id": 32230, "name": "FENGYUN 1C DEB", "group": "fengyun-1c-debris", "lat": 13.650508453480906, "lon": -51.427449417672165, "alt_km": 682.9846355161344, "timestamp": "2025-12-03T08:58:46.288074+00:00", "meta": {"OBJECT_NAME": "FENGYUN 1C DEB", "OBJECT_ID": "1999-025CWC", "EPOCH": "2025-11-30T09:24:55.537344", "MEAN_MOTION": 14.55588472, "ECCENTRICITY": 0.00526929, "INCLINATION": 98.8709, "RA_OF_ASC_NODE": 123.2328, "ARG_OF_PERICENTER": 127.3302, "MEAN_ANOMALY": 261.6517, "EPHEMERIS_TYPE": 0, "CLASSIFICATION_TYPE": "U", "NORAD_CAT_ID": 32230, "ELEMENT_SET_NO": 999, "REV_AT_EPOCH": 60490, "BSTAR": 0.0036213421, "MEAN_MOTION_DOT": 0.00016074, "MEAN_MOTION_DDOT": 0}, "tle": {"line1": "1 32230U 99025CWC 25334.39230946  .00016074  00000+0  36213-2 0  9992", "line2": "2 32230  98.8709 123.2328 0052692 127.3302 261.6517 14.55588472604902"}}, "geometry": {"type": "Point", "coordinates": [-51.427449417672165, 13.650508453480906]}}]}